{"type": "FeatureCollection", "features": [ {"type": "Feature", "properties": {"norad_id": 32323, "name": "FENGYUN 1C DEB", "group": "fengyun-1c-debris", "lat": 62.152311451884934, "lon": -38.19106082379854, "alt_km": 932.7525025844552, "timestamp": "2025-12-07T16:44:04.197483+00:00", "meta": {"OBJECT_NAME": "FENGYUN 1C DEB", "OBJECT_ID": "1999-025CXQ", "EPOCH": "2025-12-05T16:00:52.628256", "MEAN_MOTION": 13.96423813, "ECCENTRICITY": 0.01564823, "INCLINATION": 98.5677, "RA_OF_ASC_NODE": 123.338, "ARG_OF_PERICENTER": 229.7568, "MEAN_ANOMALY": 128.9821, "EPHEMERIS_TYPE": 0, "CLASSIFICATION_TYPE": "U", "NORAD_CAT_ID": 32323, "ELEMENT_SET_NO": 999, "REV_AT_EPOCH": 60171, "BSTAR": 0.0059154955, "MEAN_MOTION_DOT": 9.02e-05, "MEAN_MOTION_DDOT": 0}, "tle": {"line1": "1 32323U 99025CXQ 25339.66727579  .00009020  00000+0  59155-2 0  9996", "line2": "2 32323  98.5677 123.3380 0156482 229.7568 128.9821 13.96423813601718"}}, "geometry": {"type": "Point", "coordinates": [-38.19106082379854, 62.152311451884934]}}, {"type": "Feature", "properties": {"norad_id": 32324, "name": "FENGYUN 1C DEB", "group": "fengyun-1c-debris", "lat": 67.06411480624391, "lon": 59.760638774383224, "alt_km": 824.6981603642907, "timestamp": "2025-12-07T16:44:04.197494+00:00", "meta": {"OBJECT_NAME": "FENGYUN 1C DEB", "OBJECT_ID": "1999-025CXR", "EPOCH": "2025-12-06T13:08:44.151072", "MEAN_MOTION": 14.0913114, "ECCENTRICITY": 0.00500722, "INCLINATION": 99.5341, "RA_OF_ASC_NODE": 81.946, "ARG_OF_PERICENTER": 40.9873, "MEAN_ANOMALY": 319.5041, "EPHEMERIS_TYPE": 0, "CLASSIFICATION_TYPE": "U", "NORAD_CAT_ID": 32324, "ELEMENT_SET_NO": 999, "REV_AT_EPOCH": 63911, "BSTAR": 0.00082409319, "MEAN_MOTION_DOT": 1.398e-05, "MEAN_MOTION_DDOT": 0}, "tle": {"line1": "1 32324U 99025CXR 25340.54773323  .00001398  00000+0  82409-3 0  9993", "line2": "2 32324  99.5341  81.9460 0050072  40.9873 319.5041 14.09131140639117"}}, "geometry": {"type": "Point", "coordinates": [59.760638774383224, 67.06411480624391]}}, {"type": "Feature", "properties": {"norad_id": 32326, "name": "FENGYUN 1C DEB", "group": "fengyun-1c-debris", "lat": -38.180668208724036, "lon": -81.60454633218417, "alt_km": 1287.188237508747, "timestamp": "2025-12-07T16:44:04.197504+00:00", "meta": {"OBJECT_NAME": "FENGYUN 1C DEB", "OBJECT_ID": "1999-025CXT", "EPOCH": "2025-11-30T02:32:37.979232", "MEAN_MOTION": 13.69261307, "ECCENTRICITY": 0.03856265, "INCLINATION": 98.486, "RA_OF_ASC_NODE": 264.9459, "ARG_OF_PERICENTER": 173.0082, "MEAN_ANOMALY": 187.6669, "EPHEMERIS_TYPE": 0, "CLASSIFICATION_TYPE": "U", "NORAD_CAT_ID": 32326, "ELEMENT_SET_NO": 999, "REV_AT_EPOCH": 63009, "BSTAR": 0.00044957354, "MEAN_MOTION_DOT": 6.22e-06, "MEAN_MOTION_DDOT": 0}, "tle": {"line1": "1 32326U 99025CXT 25334.10599513  .00000622  00000+0  44957-3 0  9992", "line2": "2 32326  98.4860 264.9459 0385626 173.0082 187.6669 13.69261307630092"}}, "geometry": {"type": "Point", "coordinates": [-81.60454633218417, -38.180668208724036]}}, {"type": "Feature", "properties": {"norad_id": 32331, "name": "FENGYUN 1C DEB", "group": "fengyun-1c-debris", "lat": -0.37112107230634217, "lon": -51.315958606135396, "alt_km": 666.8007268359224, "timestamp": "2025-12-07T16:44:04.197514+00:00", "meta": {"OBJECT_NAME": "FENGYUN 1C DEB", "OBJECT_ID": "1999-025CXY", "EPOCH": "2025-11-11T08:35:02.141088", "MEAN_MOTION": 14.68670701, "ECCENTRICITY": 0.0013407, "INCLINATION": 99.1837, "RA_OF_ASC_NODE": 279.0061, "ARG_OF_PERICENTER": 226.0291, "MEAN_ANOMALY": 133.9806, "EPHEMERIS_TYPE": 0, "CLASSIFICATION_TYPE": "U", "NORAD_CAT_ID": 32331, "ELEMENT_SET_NO": 999, "REV_AT_EPOCH": 60157, "BSTAR": 0.0092524, "MEAN_MOTION_DOT": 0.0005428, "MEAN_MOTION_DDOT": 0}, "tle": {"line1": "1 32331U 99025CXY 25315.35766367  .00054280  00000+0  92524-2 0  9998", "line2": "2 32331  99.1837 279.0061 0013407 226.0291 133.9806 14.68670701601572"}}, "geometry": {"type": "Point", "coordinates": [-51.315958606135396, -0.37112107230634217]}}, {"type": "Feature", "properties": {"norad_id": 32332, "name": "FENGYUN 1C DEB", "group": "fengyun-1c-debris", "lat": -79.69445068573876, "lon": 153.55549642055095, "alt_km": 807.7073599862961, "timestamp": "2025-12-07T16:44:04.197524+00:00", "meta": {"OBJECT_NAME": "FENGYUN 1C DEB", "OBJECT_ID": "1999-025CXZ", "EPOCH": "2025-12-05T10:09:55.704096", "MEAN_MOTION": 13.97072998, "ECCENTRICITY": 0.02849151, "INCLINATION": 99.1331, "RA_OF_ASC_NODE": 33.5093, "ARG_OF_PERICENTER": 332.9459, "MEAN_ANOMALY": 25.7092, "EPHEMERIS_TYPE": 0, "CLASSIFICATION_TYPE": "U", "NORAD_CAT_ID": 32332, "ELEMENT_SET_NO": 999, "REV_AT_EPOCH": 92934, "BSTAR": 0.0024167195, "MEAN_MOTION_DOT": 4.715e-05, "MEAN_MOTION_DDOT": 0}, "tle": {"line1": "1 32332U 99025CXZ 25339.42356139  .00004715  00000+0  24167-2 0  9991", "line2": "2 32332  99.1331  33.5093 0284915 332.9459  25.7092 13.97072998929345"}}, "geometry": {"type": "Point", "coordinates": [153.55549642055095, -79.69445068573876]}}, {"type": "Feature", "properties": {"norad_id": 32334, "name": "FENGYUN 1C DEB", "group": "fengyun-1c-debris", "lat": 18.8235218850198, "lon": 32.85040353845888, "alt_km": 882.8957922323298, "timestamp": "2025-12-07T16:44:04.197534+00:00", "meta": {"OBJECT_NAME": "FENGYUN 1C DEB", "OBJECT_ID": "1999-025CYB", "EPOCH": "2025-12-06T14:56:45.041856", "MEAN_MOTION": 14.01633063, "ECCENTRICITY": 0.00663837, "INCLINATION": 99.2528, "RA_OF_ASC_NODE": 34.9466, "ARG_OF_PERICENTER": 298.1714, "MEAN_ANOMALY": 61.2755, "EPHEMERIS_TYPE": 0, "CLASSIFICATION_TYPE": "U", "NORAD_CAT_ID": 32334, "ELEMENT_SET_NO": 999, "REV_AT_EPOCH": 93854, "BSTAR": 0.00059713391, "MEAN_MOTION_DOT": 8.75e-06, "MEAN_MOTION_DDOT": 0}, "tle": {"line1": "1 32334U 99025CYB 25340.62274354  .00000875  00000+0  59713-3 0  9994", "line2": "2 32334  99.2528  34.9466 0066383 298.1714  61.2755 14.01633063938544"}}, "geometry": {"type": "Point", "coordinates": [32.85040353845888, 18.8235218850198]}}, {"type": "Feature", "properties": {"norad_id": 32340, "name": "FENGYUN 1C DEB", "group": "fengyun-1c-debris", "lat": 48.84915572890365, "lon": -23.471575041743176, "alt_km": 646.6306202145097, "timestamp": "2025-12-07T16:44:04.197544+00:00", "meta": {"OBJECT_NAME": "FENGYUN 1C DEB", "OBJECT_ID": "1999-025CYH", "EPOCH": "2025-12-06T11:11:30.883488", "MEAN_MOTION": 14.74297207, "ECCENTRICITY": 0.00345439, "INCLINATION": 98.9809, "RA_OF_ASC_NODE": 345.5914, "ARG_OF_PERICENTER": 314.0946, "MEAN_ANOMALY": 45.7417, "EPHEMERIS_TYPE": 0, "CLASSIFICATION_TYPE": "U", "NORAD_CAT_ID": 32340, "ELEMENT_SET_NO": 999, "REV_AT_EPOCH": 97104, "BSTAR": 0.0047100193, "MEAN_MOTION_DOT": 0.00031547, "MEAN_MOTION_DDOT": 0}, "tle": {"line1": "1 32340U 99025CYH 25340.46632967  .00031547  00000+0  47100-2 0  9997", "line2": "2 32340  98.9809 345.5914 0034543 314.0946  45.7417 14.74297207971046"}}, "geometry": {"type": "Point", "coordinates": [-23.471575041743176, 48.84915572890365]}}, {"type": "Feature", "properties": {"norad_id": 32342, "name": "FENGYUN 1C DEB", "group": "fengyun-1c-debris", "lat": 17.847258206860882, "lon": 173.27602641407637, "alt_km": 853.2541269651083, "timestamp": "2025-12-07T16:44:04.197577+00:00", "meta": {"OBJECT_NAME": "FENGYUN 1C DEB", "OBJECT_ID": "1999-025CYK", "EPOCH": "2025-12-06T20:10:04.154304", "MEAN_MOTION": 14.13395041, "ECCENTRICITY": 0.00078125, "INCLINATION": 98.6705, "RA_OF_ASC_NODE": 349.6295, "ARG_OF_PERICENTER": 8.4321, "MEAN_ANOMALY": 115.4797, "EPHEMERIS_TYPE": 0, "CLASSIFICATION_TYPE": "U", "NORAD_CAT_ID": 32342, "ELEMENT_SET_NO": 999, "REV_AT_EPOCH": 93634, "BSTAR": 0.000183224, "MEAN_MOTION_DOT": 3.02e-06, "MEAN_MOTION_DDOT": 0}, "tle": {"line1": "1 32342U 99025CYK 25340.84032586  .00000302  00000+0  18322-3 0  9992", "line2": "2 32342  98.6705 349.6295 0007812   8.4321 115.4797 14.13395041936345"}}, "geometry": {"type": "Point", "coordinates": [173.27602641407637, 17.847258206860882]}}, {"type": "Feature", "properties": {"norad_id": 32343, "name": "FENGYUN 1C DEB", "group": "fengyun-1c-debris", "lat": -41.94119557979813, "lon": 140.78048905957738, "alt_km": 812.6987212900885, "timestamp": "2025-12-07T16:44:04.197588+00:00", "meta": {"OBJECT_NAME": "FENGYUN 1C DEB", "OBJECT_ID": "1999-025CYL", "EPOCH": "2025-11-23T04:58:45.910848", "MEAN_MOTION": 14.1981282, "ECCENTRICITY": 0.01511129, "INCLINATION": 98.6065, "RA_OF_ASC_NODE": 314.5087, "ARG_OF_PERICENTER": 183.896, "MEAN_ANOMALY": 176.1052, "EPHEMERIS_TYPE": 0, "CLASSIFICATION_TYPE": "U", "NORAD_CAT_ID": 32343, "ELEMENT_SET_NO": 999, "REV_AT_EPOCH": 64436, "BSTAR": 0.00029765257, "MEAN_MOTION_DOT": 6.65e-06, "MEAN_MOTION_DDOT": 0}, "tle": {"line1": "1 32343U 99025CYL 25327.20747582  .00000665  00000+0  29765-3 0  9992", "line2": "2 32343  98.6065 314.5087 0151112 183.8960 176.1052 14.19812820644366"}}, "geometry": {"type": "Point", "coordinates": [140.78048905957738, -41.94119557979813]}}, {"type": "Feature", "properties": {"norad_id": 32350, "name": "FENGYUN 1C DEB", "group": "fengyun-1c-debris", "lat": -78.27346463926071, "lon": 162.33239944767197, "alt_km": 606.7054126206058, "timestamp": "2025-12-07T16:44:04.197599+00:00", "meta": {"OBJECT_NAME": "FENGYUN 1C DEB", "OBJECT_ID": "1999-025CYT", "EPOCH": "2025-12-05T20:31:39.778464", "MEAN_MOTION": 14.52477778, "ECCENTRICITY": 0.0267162, "INCLINATION": 98.2291, "RA_OF_ASC_NODE": 24.725, "ARG_OF_PERICENTER": 319.9483, "MEAN_ANOMALY": 38.2279, "EPHEMERIS_TYPE": 0, "CLASSIFICATION_TYPE": "U", "NORAD_CAT_ID": 32350, "ELEMENT_SET_NO": 999, "REV_AT_EPOCH": 97427, "BSTAR": 0.0012950671, "MEAN_MOTION_DOT": 8.414e-05, "MEAN_MOTION_DDOT": 0}, "tle": {"line1": "1 32350U 99025CYT 25339.85532151  .00008414  00000+0  12951-2 0  9996", "line2": "2 32350  98.2291  24.7250 0267162 319.9483  38.2279 14.52477778974279"}}, "geometry": {"type": "Point", "coordinates": [162.33239944767197, -78.27346463926071]}}]}